OBJECT_NAME,OBJECT_ID,EPOCH,MEAN_MOTION,ECCENTRICITY,INCLINATION,RA_OF_ASC_NODE,ARG_OF_PERICENTER,MEAN_ANOMALY,EPHEMERIS_TYPE,CLASSIFICATION_TYPE,NORAD_CAT_ID,ELEMENT_SET_NO,REV_AT_EPOCH,BSTAR,MEAN_MOTION_DOT,MEAN_MOTION_DDOT
STARLINK-35189,2025-212A,2026-07-01T06:01:45.117696,15.30224904,.00013405,53.1584,177.9584,125.0354,235.0773,0,U,65676,999,4458,.58785005E-3,.17105E-3,0
STARLINK-35222,2025-212B,2026-07-01T07:04:30.260352,15.34407016,.00012623,53.1587,177.5239,117.8262,242.2869,0,U,65677,999,4465,.10773689E-2,.36208E-3,0
STARLINK-35233,2025-212C,2026-07-01T06:53:02.550048,15.31722048,.0001481,53.1594,178.1871,101.0288,259.0880,0,U,65678,999,4464,.62501E-3,.19093E-3,0
STARLINK-35205,2025-212D,2026-07-01T06:31:10.671456,15.34401433,.00011972,53.1578,177.3790,86.5782,273.5358,0,U,65679,999,4459,.69619707E-3,.2322E-3,0
STARLINK-35070,2025-212E,2026-07-01T05:52:38.841600,15.30210983,.0001335,53.1576,177.9160,65.8894,294.2246,0,U,65680,999,4463,.83055E-3,.24328E-3,0
STARLINK-35230,2025-212F,2026-07-01T06:16:01.773696,15.34416545,.0000845,53.1567,177.3115,88.0813,272.0286,0,U,65681,999,4465,.10839E-2,.36444E-3,0
STARLINK-35235,2025-212G,2026-07-01T06:03:13.502304,15.34414514,.0000892,53.1583,175.8366,81.6673,278.4431,0,U,65682,999,4461,.77651E-3,.25962E-3,0
STARLINK-34886,2025-212H,2026-07-01T06:51:56.606112,15.31725555,.0001227,53.1570,177.4639,87.7141,272.4001,0,U,65683,999,4459,.69166E-3,.21176E-3,0
STARLINK-34795,2025-212J,2026-07-01T07:07:32.219616,15.34403714,.00015903,53.1587,177.5344,74.2285,285.8893,0,U,65684,999,4459,.34082109E-3,.11157E-3,0
STARLINK-35145,2025-212K,2026-07-01T06:03:54.766944,15.34407795,.0001062,53.1585,177.2609,79.5221,280.5901,0,U,65685,999,4459,.1102E-2,.3705E-3,0
STARLINK-35137,2025-212L,2026-07-01T05:57:44.141184,15.34407177,.0001108,53.1580,167.2463,99.4181,260.6947,0,U,65686,999,4473,.10781E-2,.36233E-3,0
STARLINK-34856,2025-212M,2026-07-01T06:45:13.234752,15.31715776,.00009555,53.1559,177.4357,103.1833,256.9275,0,U,65687,999,4459,.9587659E-3,.29519E-3,0
STARLINK-34930,2025-212N,2026-07-01T05:51:35.102592,15.31726872,.00011198,53.1586,177.9092,112.2808,247.8312,0,U,65688,999,4463,.9159253E-3,.28188E-3,0
STARLINK-34875,2025-212P,2026-07-01T06:52:23.329632,15.34409309,.00011841,53.1567,177.4694,71.0082,289.1049,0,U,65689,999,4464,.83615495E-3,.27988E-3,0
STARLINK-34790,2025-212Q,2026-07-01T07:19:39.229824,15.34393176,.00008207,53.1585,177.5874,96.1046,264.0050,0,U,65690,999,4459,.52686011E-3,.17462E-3,0
STARLINK-34691,2025-212R,2026-07-01T05:42:07.337088,15.30206342,.0001171,53.1579,167.8800,85.7424,274.3711,0,U,65691,999,4477,.1253E-2,.36943E-3,0
STARLINK-34825,2025-212S,2026-07-01T06:46:19.136352,15.34415167,.00009559,53.1572,177.4410,96.0193,264.0918,0,U,65692,999,4463,.68291734E-3,.22778E-3,0
STARLINK-35060,2025-212T,2026-07-01T05:57:20.586816,15.30199315,.0001014,53.1569,167.9460,96.8337,263.2779,0,U,65693,999,4477,.83814E-3,.24546E-3,0
STARLINK-35204,2025-212U,2026-07-01T06:28:08.921280,15.34403514,.00010835,53.1575,177.3634,108.9343,251.1778,0,U,65694,999,4465,.11030197E-2,.3708E-3,0
STARLINK-35221,2025-212V,2026-07-01T06:15:25.838208,15.30216909,.0001037,53.1574,178.0121,94.4136,265.6983,0,U,65695,999,4464,.72074E-3,.21059E-3,0
STARLINK-34734,2025-212W,2026-07-01T06:11:36.917088,15.31720792,.0001016,53.1578,177.2909,69.6594,290.4517,0,U,65696,999,4464,.96493E-3,.29717E-3,0
STARLINK-35113,2025-212X,2026-07-01T06:00:12.096864,15.34427433,.0001024,53.1572,175.8198,98.8328,261.2790,0,U,65697,999,4466,.14862E-2,.5022E-3,0
STARLINK-35090,2025-212Y,2026-07-01T05:57:51.164640,15.34441665,.0000997,53.1593,177.2298,99.9251,260.1864,0,U,65698,999,4464,.93434E-3,.31366E-3,0
STARLINK-35086,2025-212Z,2026-07-01T06:32:52.687392,15.31718706,.0001275,53.1573,178.0905,96.2000,263.9146,0,U,65699,999,4458,.10003E-2,.30822E-3,0
STARLINK-35101,2025-212AA,2026-07-01T06:09:17.082144,15.34405452,.0000446,53.1577,175.8604,66.0072,294.0978,0,U,65700,999,4461,.90583E-3,.30358E-3,0
STARLINK-35046,2025-212AB,2026-07-01T06:40:15.362976,15.34411634,.0001178,53.1571,177.4125,98.6992,261.4144,0,U,65701,999,4464,.95289E-3,.31968E-3,0
STARLINK-35075,2025-212AC,2026-07-01T06:13:54.560064,15.30221319,.0000965,53.1580,178.0038,93.6422,266.4689,0,U,65702,999,4463,.81244E-3,.23796E-3,0
STARLINK-34839,2025-212AD,2026-07-01T06:38:29.908320,15.31713748,.0001149,53.1559,177.4032,88.4972,271.6161,0,U,65703,999,4464,.63197E-3,.19305E-3,0
STARLINK-34086,2025-216A,2026-07-01T06:23:45.370176,15.30215033,.00014793,53.1576,165.2767,77.1488,282.9678,0,U,65734,999,4395,.3719774E-3,.10679E-3,0
STARLINK-35099,2025-216B,2026-07-01T05:57:55.202976,15.30212196,.0001109,53.1569,165.1603,79.3752,280.7373,0,U,65735,999,4390,.11665E-2,.34362E-3,0
