STARLINK-35189          
1 65676U 25212A   26182.25121664  .00017105  00000+0  58785-3 0  9997
2 65676  53.1584 177.9584 0001340 125.0354 235.0773 15.30224904 44585
STARLINK-35222          
1 65677U 25212B   26182.29479468  .00036208  00000+0  10774-2 0  9990
2 65677  53.1587 177.5239 0001262 117.8262 242.2869 15.34407016 44657
STARLINK-35233          
1 65678U 25212C   26182.28683507  .00019093  00000+0  62501-3 0  9990
2 65678  53.1594 178.1871 0001481 101.0288 259.0880 15.31722048 44641
STARLINK-35205          
1 65679U 25212D   26182.27165129  .00023220  00000+0  69620-3 0  9991
2 65679  53.1578 177.3790 0001197  86.5782 273.5358 15.34401433 44595
STARLINK-35070          
1 65680U 25212E   26182.24489400  .00024328  00000+0  83055-3 0  9999
2 65680  53.1576 177.9160 0001335  65.8894 294.2246 15.30210983 44635
STARLINK-35230          
1 65681U 25212F   26182.26113164  .00036444  00000+0  10839-2 0  9994
2 65681  53.1567 177.3115 0000845  88.0813 272.0286 15.34416545 44659
STARLINK-35235          
1 65682U 25212G   26182.25223961  .00025962  00000+0  77651-3 0  9990
2 65682  53.1583 175.8366 0000892  81.6673 278.4431 15.34414514 44616
STARLINK-34886          
1 65683U 25212H   26182.28607183  .00021176  00000+0  69166-3 0  9991
2 65683  53.1570 177.4639 0001227  87.7141 272.4001 15.31725555 44595
STARLINK-34795          
1 65684U 25212J   26182.29690069  .00011157  00000+0  34082-3 0  9995
2 65684  53.1587 177.5344 0001590  74.2285 285.8893 15.34403714 44591
STARLINK-35145          
1 65685U 25212K   26182.25271721  .00037050  00000+0  11020-2 0  9998
2 65685  53.1585 177.2609 0001062  79.5221 280.5901 15.34407795 44598
STARLINK-35137          
1 65686U 25212L   26182.24842756  .00036233  00000+0  10781-2 0  9995
2 65686  53.1580 167.2463 0001108  99.4181 260.6947 15.34407177 44737
STARLINK-34856          
1 65687U 25212M   26182.28140318  .00029519  00000+0  95877-3 0  9994
2 65687  53.1559 177.4357 0000955 103.1833 256.9275 15.31715776 44595
STARLINK-34930          
1 65688U 25212N   26182.24415628  .00028188  00000+0  91593-3 0  9992
2 65688  53.1586 177.9092 0001119 112.2808 247.8312 15.31726872 44638
STARLINK-34875          
1 65689U 25212P   26182.28638113  .00027988  00000+0  83615-3 0  9996
2 65689  53.1567 177.4694 0001184  71.0082 289.1049 15.34409309 44642
STARLINK-34790          
1 65690U 25212Q   26182.30531516  .00017462  00000+0  52686-3 0  9990
2 65690  53.1585 177.5874 0000820  96.1046 264.0050 15.34393176 44591
STARLINK-34691          
1 65691U 25212R   26182.23758492  .00036943  00000+0  12530-2 0  9995
2 65691  53.1579 167.8800 0001171  85.7424 274.3711 15.30206342 44772
STARLINK-34825          
1 65692U 25212S   26182.28216593  .00022778  00000+0  68292-3 0  9990
2 65692  53.1572 177.4410 0000955  96.0193 264.0918 15.34415167 44638
STARLINK-35060          
1 65693U 25212T   26182.24815494  .00024546  00000+0  83814-3 0  9994
2 65693  53.1569 167.9460 0001014  96.8337 263.2779 15.30199315 44770
STARLINK-35204          
1 65694U 25212U   26182.26954770  .00037080  00000+0  11030-2 0  9995
2 65694  53.1575 177.3634 0001083 108.9343 251.1778 15.34403514 44659
STARLINK-35221          
1 65695U 25212V   26182.26071572  .00021059  00000+0  72074-3 0  9991
2 65695  53.1574 178.0121 0001037  94.4136 265.6983 15.30216909 44649
STARLINK-34734          
1 65696U 25212W   26182.25806617  .00029717  00000+0  96493-3 0  9997
2 65696  53.1578 177.2909 0001016  69.6594 290.4517 15.31720792 44648
STARLINK-35113          
1 65697U 25212X   26182.25014001  .00050220  00000+0  14862-2 0  9998
2 65697  53.1572 175.8198 0001024  98.8328 261.2790 15.34427433 44665
STARLINK-35090          
1 65698U 25212Y   26182.24850885  .00031366  00000+0  93434-3 0  9999
2 65698  53.1593 177.2298 0000997  99.9251 260.1864 15.34441665 44642
STARLINK-35086          
1 65699U 25212Z   26182.27283203  .00030822  00000+0  10003-2 0  9993
2 65699  53.1573 178.0905 0001275  96.2000 263.9146 15.31718706 44584
STARLINK-35101          
1 65700U 25212AA  26182.25644771  .00030358  00000+0  90583-3 0  9991
2 65700  53.1577 175.8604 0000446  66.0072 294.0978 15.34405452 44611
STARLINK-35046          
1 65701U 25212AB  26182.27795559  .00031968  00000+0  95289-3 0  9991
2 65701  53.1571 177.4125 0001178  98.6992 261.4144 15.34411634 44642
STARLINK-35075          
1 65702U 25212AC  26182.25965926  .00023796  00000+0  81244-3 0  9993
2 65702  53.1580 178.0038 0000965  93.6422 266.4689 15.30221319 44632
STARLINK-34839          
1 65703U 25212AD  26182.27673505  .00019305  00000+0  63197-3 0  9993
2 65703  53.1559 177.4032 0001149  88.4972 271.6161 15.31713748 44640
STARLINK-34086          
1 65734U 25216A   26182.26649734  .00010679  00000+0  37198-3 0  9994
2 65734  53.1576 165.2767 0001479  77.1488 282.9678 15.30215033 43950
STARLINK-35099          
1 65735U 25216B   26182.24855559  .00034362  00000+0  11665-2 0  9992
2 65735  53.1569 165.1603 0001109  79.3752 280.7373 15.30212196 43909
